NORAD_CAT_ID,OBJECT_NAME,OBJECT_TYPE,EPOCH,MEAN_MOTION,ECCENTRICITY,INCLINATION,RA_OF_ASC_NODE,ARG_OF_PERICENTER,MEAN_ANOMALY,BSTAR,MEAN_MOTION_DOT,MEAN_MOTION_DDOT,TLE_LINE0,TLE_LINE1,TLE_LINE2,SEMIMAJOR_AXIS,PERIOD,APOGEE,PERIGEE,DECAYED
53170.0,STARLINK-4095,PAYLOAD,2024-06-19 02:24:06,15.08841513,0.0001288,53.2179,100.9232,90.7312,269.3828,0.00014032,1.946e-05,0.0,0 STARLINK-4095,1 53170U 22083AQ  24171.10007839  .00001946  00000-0  14032-3 0  9997,2 53170  53.2179 100.9232 0001288  90.7312 269.3828 15.08841513107162,6917.876,95.437,540.632,538.85,0.0
53170.0,STARLINK-4095,PAYLOAD,2024-06-19 11:56:25,15.08843577,0.000126,53.2178,99.138,86.4277,273.6859,8.7482e-05,1.105e-05,0.0,0 STARLINK-4095,1 53170U 22083AQ  24171.49751713  .00001105  00000-0  87482-4 0  9993,2 53170  53.2178  99.1380 0001260  86.4277 273.6859 15.08843577106596,6917.869,95.437,540.606,538.863,0.0
53170.0,STARLINK-4095,PAYLOAD,2024-06-19 18:17:58,15.08834801,0.0001382,53.2183,97.9543,97.6697,262.4452,9.765e-05,1.266e-05,0.0,0 STARLINK-4095,1 53170U 22083AQ  24171.76248393  .00001266  00000-0  97650-4 0  9994,2 53170  53.2183  97.9543 0001382  97.6697 262.4452 15.08834801107264,6917.896,95.438,540.717,538.805,0.0
53170.0,STARLINK-4095,PAYLOAD,2024-06-20 02:14:54,15.08830487,0.0001403,53.2198,96.4663,97.3007,262.8145,-9.3277e-06,-4.36e-06,0.0,0 STARLINK-4095,1 53170U 22083AQ  24172.09369046 -.00000436  00000-0 -93277-5 0  9992,2 53170  53.2198  96.4663 0001403  97.3007 262.8145 15.08830487107318,6917.909,95.438,540.745,538.804,0.0
53170.0,STARLINK-4095,PAYLOAD,2024-06-20 11:47:13,15.0883635,0.0001423,53.2178,94.6785,89.2151,270.9005,1.1841e-05,-9.9e-07,0.0,0 STARLINK-4095,1 53170U 22083AQ  24172.49112763 -.00000099  00000-0  11841-4 0  9998,2 53170  53.2178  94.6785 0001423  89.2151 270.9005 15.08836350106749,6917.892,95.438,540.741,538.772,0.0
53170.0,STARLINK-4095,PAYLOAD,2024-06-20 22:54:55,15.08840184,0.0001341,53.2178,92.5973,91.7627,268.3518,3.5397e-05,2.75e-06,0.0,0 STARLINK-4095,1 53170U 22083AQ  24172.95480507  .00000275  00000-0  35397-4 0  9990,2 53170  53.2178  92.5973 0001341  91.7627 268.3518 15.08840184107448,6917.88,95.438,540.673,538.817,0.0
53170.0,STARLINK-4095,PAYLOAD,2024-06-21 03:41:03,15.0885158,0.0001223,53.2178,91.705,109.1105,251.002,7.1172e-05,8.45e-06,0.0,0 STARLINK-4095,1 53170U 22083AQ  24173.15351619  .00000845  00000-0  71172-4 0  9998,2 53170  53.2178  91.7050 0001223 109.1105 251.0020 15.08851580107471,6917.845,95.437,540.556,538.864,0.0
53170.0,STARLINK-4095,PAYLOAD,2024-06-21 17:59:32,15.08836233,0.0001631,53.2188,89.0309,93.3611,266.7568,0.00013794,1.908e-05,0.0,0 STARLINK-4095,1 53170U 22083AQ  24173.74968687  .00001908  00000-0  13794-3 0  9998,2 53170  53.2188  89.0309 0001631  93.3611 266.7568 15.08836233107566,6917.892,95.438,540.885,538.629,0.0
53170.0,STARLINK-4095,PAYLOAD,2024-06-21 22:45:42,15.08836045,0.0001636,53.2191,88.1383,106.055,254.0622,0.00012992,1.78e-05,0.0,0 STARLINK-4095,1 53170U 22083AQ  24173.94840728  .00001780  00000-0  12992-3 0  9992,2 53170  53.2191  88.1383 0001636 106.0550 254.0622 15.08836045106966,6917.892,95.438,540.889,538.626,0.0
53170.0,STARLINK-4095,PAYLOAD,2024-06-22 01:56:28,15.08845378,0.0001339,53.2186,87.541,90.694,269.4205,0.00015259,2.142e-05,0.0,0 STARLINK-4095,1 53170U 22083AQ  24174.08088178  .00002142  00000-0  15259-3 0  9993,2 53170  53.2186  87.5410 0001339  90.6940 269.4205 15.08845378107614,6917.864,95.437,540.655,538.803,0.0
53170.0,STARLINK-4095,PAYLOAD,2024-06-22 17:50:20,15.08836524,0.0001395,53.219,84.5668,97.0105,263.1046,5.7594e-05,6.29e-06,0.0,0 STARLINK-4095,1 53170U 22083AQ  24174.74329070  .00000629  00000-0  57594-4 0  9992,2 53170  53.2190  84.5668 0001395  97.0105 263.1046 15.08836524107715,6917.891,95.438,540.721,538.791,0.0
53170.0,STARLINK-4095,PAYLOAD,2024-06-22 22:36:29,15.08839502,0.0001414,53.219,83.6777,89.7683,270.3472,6.6321e-05,7.68e-06,0.0,0 STARLINK-4095,1 53170U 22083AQ  24174.94200941  .00000768  00000-0  66321-4 0  9991,2 53170  53.2190  83.6777 0001414  89.7683 270.3472 15.08839502107113,6917.882,95.438,540.725,538.769,0.0
53170.0,STARLINK-4095,PAYLOAD,2024-06-23 03:22:38,15.08847576,0.0001338,53.2182,82.7841,102.0329,258.0813,5.2604e-05,5.5e-06,0.0,0 STARLINK-4095,1 53170U 22083AQ  24175.14072440  .00000550  00000-0  52604-4 0  9993,2 53170  53.2182  82.7841 0001338 102.0329 258.0813 15.08847576107771,6917.857,95.437,540.648,538.797,0.0
53170.0,STARLINK-4095,PAYLOAD,2024-06-23 22:27:16,15.08847317,0.0001413,53.2184,79.2169,89.9434,270.1721,0.00010679,1.412e-05,0.0,0 STARLINK-4095,1 53170U 22083AQ  24175.93560253  .00001412  00000-0  10679-3 0  9997,2 53170  53.2184  79.2169 0001413  89.9434 270.1721 15.08847317107261,6917.858,95.437,540.701,538.746,0.0
53170.0,STARLINK-4095,PAYLOAD,2024-06-24 00:02:39,15.08848814,0.0001446,53.2185,78.9199,87.5475,272.5683,0.0001265,1.726e-05,0.0,0 STARLINK-4095,1 53170U 22083AQ  24176.00184133  .00001726  00000-0  12650-3 0  9994,2 53170  53.2185  78.9199 0001446  87.5475 272.5683 15.08848814107273,6917.853,95.437,540.719,538.718,0.0
53170.0,STARLINK-4095,PAYLOAD,2024-06-24 20:42:40,15.08835533,0.0001675,53.2192,75.0577,74.8916,285.2261,8.2091e-05,1.019e-05,0.0,0 STARLINK-4095,1 53170U 22083AQ  24176.86297164  .00001019  00000-0  82091-4 0  9999,2 53170  53.2192  75.0577 0001675  74.8916 285.2261 15.08835533108034,6917.894,95.438,540.918,538.6,0.0
53170.0,STARLINK-4095,PAYLOAD,2024-06-25 22:08:50,15.08845669,0.0001519,53.2173,70.2965,84.2927,275.8238,3.7052e-05,3.02e-06,0.0,0 STARLINK-4095,1 53170U 22083AQ  24177.92280589  .00000302  00000-0  37052-4 0  9991,2 53170  53.2173  70.2965 0001519  84.2927 275.8238 15.08845669107562,6917.863,95.437,540.779,538.677,0.0
53170.0,STARLINK-4095,PAYLOAD,2024-06-26 23:35:00,15.08841242,0.00015,53.2183,65.5403,91.0571,269.0593,3.7477e-05,3.09e-06,0.0,0 STARLINK-4095,1 53170U 22083AQ  24178.98264777  .00000309  00000-0  37477-4 0  9997,2 53170  53.2183  65.5403 0001500  91.0571 269.0593 15.08841242108358,6917.877,95.437,540.779,538.704,0.0
53170.0,STARLINK-4095,PAYLOAD,2024-06-27 20:15:02,15.08843781,0.0001233,53.2173,61.6743,94.5111,265.6022,-0.00010178,-1.907e-05,0.0,0 STARLINK-4095,1 53170U 22083AQ  24179.84377515 -.00001907  00000-0 -10178-3 0  9993,2 53170  53.2173  61.6743 0001233  94.5111 265.6022 15.08843781108485,6917.869,95.437,540.587,538.881,0.0
53170.0,STARLINK-4095,PAYLOAD,2024-06-27 21:50:25,15.08839216,0.0001326,53.2174,61.3769,98.5379,261.5763,-2.709e-05,-7.19e-06,0.0,0 STARLINK-4095,1 53170U 22083AQ  24179.91001544 -.00000719  00000-0 -27090-4 0  9999,2 53170  53.2174  61.3769 0001326  98.5379 261.5763 15.08839216107860,6917.883,95.438,540.665,538.83,0.0
53170.0,STARLINK-4095,PAYLOAD,2024-06-28 08:58:06,15.08845484,0.0001106,53.2167,59.2926,78.589,281.5227,0.0001275,1.742e-05,0.0,0 STARLINK-4095,1 53170U 22083AQ  24180.37368698  .00001742  00000-0  12750-3 0  9998,2 53170  53.2167  59.2926 0001106  78.5890 281.5227 15.08845484108564,6917.864,95.437,540.494,538.964,0.0
53170.0,STARLINK-4095,PAYLOAD,2024-06-28 21:41:11,15.08847349,0.0001249,53.2164,56.914,82.2794,277.834,0.00018909,2.723e-05,0.0,0 STARLINK-4095,1 53170U 22083AQ  24180.90360629  .00002723  00000-0  18909-3 0  9995,2 53170  53.2164  56.9140 0001249  82.2794 277.8340 15.08847349108012,6917.858,95.437,540.587,538.859,0.0
53170.0,STARLINK-4095,PAYLOAD,2024-06-28 23:16:34,15.08861036,0.0001127,53.2163,56.6189,104.9506,255.161,0.00040933,6.236e-05,0.0,0 STARLINK-4095,1 53170U 22083AQ  24180.96983810  .00006236  00000-0  40933-3 0  9999,2 53170  53.2163  56.6189 0001127 104.9506 255.1610 15.08861036108657,6917.816,95.436,540.461,538.901,0.0
53170.0,STARLINK-4095,PAYLOAD,2024-06-29 15:10:27,15.08828702,0.0001389,53.2172,53.6467,98.1315,261.9835,-3.7214e-05,-8.8e-06,0.0,0 STARLINK-4095,1 53170U 22083AQ  24181.63225941 -.00000880  00000-0 -37214-4 0  9998,2 53170  53.2172  53.6467 0001389  98.1315 261.9835 15.08828702108124,6917.915,95.438,540.741,538.819,0.0
53170.0,STARLINK-4095,PAYLOAD,2024-06-29 19:56:36,15.08823628,9.79e-05,53.2181,52.7515,91.0011,269.1094,-8.9946e-05,-1.718e-05,0.0,0 STARLINK-4095,1 53170U 22083AQ  24181.83098298 -.00001718  00000-0 -89946-4 0  9993,2 53170  53.2181  52.7515 0000979  91.0011 269.1094 15.08823628108788,6917.93,95.439,540.473,539.118,0.0
53170.0,STARLINK-4095,PAYLOAD,2024-06-29 21:31:59,15.08826681,0.0001118,53.217,52.4523,101.9651,258.1467,-0.00014343,-2.569e-05,0.0,0 STARLINK-4095,1 53170U 22083AQ  24181.89722175 -.00002569  00000-0 -14343-3 0  9990,2 53170  53.2170  52.4523 0001118 101.9651 258.1467 15.08826681108165,6917.921,95.438,540.56,539.013,0.0
53170.0,STARLINK-4095,PAYLOAD,2024-06-30 08:39:41,15.08837276,9.39e-05,53.217,50.3745,93.2618,266.8482,3.3361e-05,2.43e-06,0.0,0 STARLINK-4095,1 53170U 22083AQ  24182.36089877  .00000243  00000-0  33361-4 0  9995,2 53170  53.2170  50.3745 0000939  93.2618 266.8482 15.08837276108866,6917.889,95.438,540.403,539.104,0.0
53170.0,STARLINK-4095,PAYLOAD,2024-06-30 15:01:14,15.08841426,8.46e-05,53.2173,49.1828,97.7748,262.334,0.00012248,1.662e-05,0.0,0 STARLINK-4095,1 53170U 22083AQ  24182.62585681  .00001662  00000-0  12248-3 0  9994,2 53170  53.2173  49.1828 0000846  97.7748 262.3340 15.08841426108278,6917.876,95.437,540.326,539.156,0.0
53170.0,STARLINK-4095,PAYLOAD,2024-06-30 21:22:45,15.08857457,8.85e-05,53.2153,47.9953,105.7055,254.4035,0.00019364,2.797e-05,0.0,0 STARLINK-4095,1 53170U 22083AQ  24182.89080662  .00002797  00000-0  19364-3 0  9998,2 53170  53.2153  47.9953 0000885 105.7055 254.4035 15.08857457108943,6917.827,95.436,540.304,539.08,0.0
53170.0,STARLINK-4095,PAYLOAD,2024-07-01 14:52:01,15.08844871,0.0001266,53.2191,44.7224,112.1131,247.9996,0.00031136,4.672e-05,0.0,0 STARLINK-4095,1 53170U 22083AQ  24183.61945773  .00004672  00000-0  31136-3 0  9997,2 53170  53.2191  44.7224 0001266 112.1131 247.9996 15.08844871108424,6917.866,95.437,540.606,538.855,0.0
